{
"type": "FeatureCollection",
"name": "barrios",
"crs": { "type": "name", "properties": { "name": "urn:ogc:def:crs:OGC:1.3:CRS84" } },
"features": [
{ "type": "Feature", "properties": { "id_barrio": 21, "barrio": "CIUDAD SATELITE", "poblacion_2017": 26159, "hombres_2017": 12240, "mujeres_2017": 13522, "consolidacion": "En consolidación", "fuente": "Base Comunal Barrios (campos asociados a Censo 2017)", "anio_fuente": 2017 }, "geometry": { "type": "Polygon", "coordinates": [ [ [ -70.773013980577062, -33.561229204751996 ], [ -70.776819504864307, -33.569499327654896 ], [ -70.783559788145993, -33.567734837536413 ], [ -70.786300524583538, -33.565650508357862 ], [ -70.787511859139954, -33.564674213188908 ], [ -70.79507785155495, -33.558116838436987 ], [ -70.797835483904436, -33.555661582790229 ], [ -70.793127594456109, -33.552377328060999 ], [ -70.786641517837708, -33.556252117806288 ], [ -70.779975116300065, -33.558315150342779 ], [ -70.775644683201932, -33.560179244638285 ], [ -70.773013980577062, -33.561229204751996 ] ] ] } },
{ "type": "Feature", "properties": { "id_barrio": 19, "barrio": "EL ABRAZO DE MAIPU", "poblacion_2017": 33153, "hombres_2017": 16098, "mujeres_2017": 17036, "consolidacion": "En consolidación", "fuente": "Base Comunal Barrios (campos asociados a Censo 2017)", "anio_fuente": 2017 }, "geometry": { "type": "Polygon", "coordinates": [ [ [ -70.764870374437507, -33.543469974683902 ], [ -70.760525661655393, -33.545388513392787 ], [ -70.760144747284428, -33.545277923861441 ], [ -70.75787165776579, -33.546319469774055 ], [ -70.75802862989643, -33.546557253291965 ], [ -70.756331618604605, -33.547328878591912 ], [ -70.755129426479201, -33.547979732702245 ], [ -70.754477289206392, -33.548417464471697 ], [ -70.751506440263682, -33.550709088789603 ], [ -70.750387644656385, -33.55181157554302 ], [ -70.754374925606072, -33.55627932286859 ], [ -70.757804638813568, -33.55439124786475 ], [ -70.760630936664015, -33.557347773821007 ], [ -70.768800687149238, -33.554131254994836 ], [ -70.770643436186532, -33.553712950226561 ], [ -70.769851293121235, -33.551390350535428 ], [ -70.783043194346035, -33.545340906039158 ], [ -70.773811313260893, -33.53888759151473 ], [ -70.76978567281806, -33.536153463160041 ], [ -70.767018885119413, -33.538977541071759 ], [ -70.766187105082821, -33.53967678128997 ], [ -70.765481231982534, -33.540129635810544 ], [ -70.762941951631234, -33.5413339349209 ], [ -70.76312320803315, -33.541580156881928 ], [ -70.764870374437507, -33.543469974683902 ] ] ] } },
{ "type": "Feature", "properties": { "id_barrio": 18, "barrio": "INDUSTRIAL", "poblacion_2017": 501, "hombres_2017": 242, "mujeres_2017": 228, "consolidacion": "No aplica", "fuente": "Base Comunal Barrios (campos asociados a Censo 2017)", "anio_fuente": 2017 }, "geometry": { "type": "Polygon", "coordinates": [ [ [ -70.720949750615006, -33.51175414421354 ], [ -70.719820150158768, -33.512681597776442 ], [ -70.719206914987339, -33.513276017470574 ], [ -70.718341031432374, -33.513956197095283 ], [ -70.721732468601871, -33.518292006915587 ], [ -70.722183980208712, -33.518683157360115 ], [ -70.726444766469768, -33.52405195397413 ], [ -70.732890227297815, -33.531989563519282 ], [ -70.737313850930775, -33.537101558448263 ], [ -70.743187276198057, -33.543776070786947 ], [ -70.750387644656385, -33.55181157554302 ], [ -70.751506440263682, -33.550709088789603 ], [ -70.754477289206392, -33.548417464471697 ], [ -70.755129426479201, -33.547979732702245 ], [ -70.756331618604605, -33.547328878591912 ], [ -70.75802862989643, -33.546557253291965 ], [ -70.75787165776579, -33.546319469774055 ], [ -70.760144747284428, -33.545277923861441 ], [ -70.760525661655393, -33.545388513392787 ], [ -70.764870374437507, -33.543469974683902 ], [ -70.76312320803315, -33.541580156881928 ], [ -70.762941951631234, -33.5413339349209 ], [ -70.765481231982534, -33.540129635810544 ], [ -70.766187105082821, -33.53967678128997 ], [ -70.767018885119413, -33.538977541071759 ], [ -70.76978567281806, -33.536153463160041 ], [ -70.762564394198918, -33.531297324190533 ], [ -70.758278534336313, -33.528311581163265 ], [ -70.757012593856942, -33.527551541364218 ], [ -70.757123383414637, -33.527237784136091 ], [ -70.757197043462185, -33.526556228357784 ], [ -70.756930311122488, -33.526529857414822 ], [ -70.755749863388942, -33.525712925592337 ], [ -70.755631703993757, -33.525592612481361 ], [ -70.755541722830003, -33.525370139378296 ], [ -70.755561359316047, -33.522438290370566 ], [ -70.754651264260929, -33.522864507211885 ], [ -70.752532575385388, -33.52372500330501 ], [ -70.752453305573525, -33.523717291217686 ], [ -70.751256112037424, -33.522674024991204 ], [ -70.752248000621321, -33.522690913735225 ], [ -70.752315979667472, -33.523184714944406 ], [ -70.752498979224086, -33.523628294055634 ], [ -70.754316821643144, -33.522903808119999 ], [ -70.754320014665709, -33.522521051610816 ], [ -70.754543308330426, -33.522450668043511 ], [ -70.754540141291628, -33.522293865395838 ], [ -70.754839956188604, -33.522170859411858 ], [ -70.755569719629733, -33.522043938402582 ], [ -70.755623164467451, -33.518738797221154 ], [ -70.747166261570953, -33.5186849919805 ], [ -70.747083900627402, -33.518663692903402 ], [ -70.744732993979582, -33.516442666915253 ], [ -70.74399824125625, -33.517577032460096 ], [ -70.742046874528256, -33.516470453026372 ], [ -70.741427817098412, -33.51668836273749 ], [ -70.741158636281511, -33.516894128122658 ], [ -70.740262038323294, -33.518260081580031 ], [ -70.734026951510117, -33.515001001547787 ], [ -70.737189185984334, -33.512188319524888 ], [ -70.737043000900229, -33.51088264030605 ], [ -70.727331342510482, -33.511840980721431 ], [ -70.722952613587282, -33.509955495492058 ], [ -70.720949750615006, -33.51175414421354 ] ] ] } },
{ "type": "Feature", "properties": { "id_barrio": 2, "barrio": "LONGITUDINAL", "poblacion_2017": 46525, "hombres_2017": 22101, "mujeres_2017": 24424, "consolidacion": "En consolidación", "fuente": "Base Comunal Barrios (campos asociados a Censo 2017)", "anio_fuente": 2017 }, "geometry": { "type": "Polygon", "coordinates": [ [ [ -70.748895609615303, -33.486369729003698 ], [ -70.749624790284656, -33.486731003735279 ], [ -70.750151362550369, -33.487065119894787 ], [ -70.750832996126192, -33.487593378096165 ], [ -70.756214662614468, -33.478061888979994 ], [ -70.7593041777575, -33.472980117384282 ], [ -70.761287809754506, -33.469588300026864 ], [ -70.761673063885397, -33.468692007379467 ], [ -70.763434458737962, -33.463387335441631 ], [ -70.762666138831293, -33.463476423582385 ], [ -70.761998153981722, -33.46389159789959 ], [ -70.760464059945946, -33.464200619470198 ], [ -70.759767085991029, -33.464426159687662 ], [ -70.757140748003323, -33.464884820458465 ], [ -70.753554074010083, -33.465584919860348 ], [ -70.737905690430466, -33.468361969200664 ], [ -70.737306137736965, -33.468723326355466 ], [ -70.737175239020843, -33.470318886059971 ], [ -70.737017196677485, -33.470608436618917 ], [ -70.736967898428418, -33.471549902255703 ], [ -70.73747742991111, -33.472078904296623 ], [ -70.740842256427754, -33.476355833708475 ], [ -70.742359897416833, -33.47847177834533 ], [ -70.744048933709323, -33.480359839156115 ], [ -70.745061213000056, -33.481635165536701 ], [ -70.745684775196082, -33.482559746471367 ], [ -70.745895068908567, -33.482967103540275 ], [ -70.746575586972085, -33.484030657124443 ], [ -70.747250908376472, -33.484918427488878 ], [ -70.747608734971649, -33.485353009133775 ], [ -70.747954214060613, -33.485675039534122 ], [ -70.74828758351336, -33.485963421324833 ], [ -70.748895609615303, -33.486369729003698 ] ] ] } },
{ "type": "Feature", "properties": { "id_barrio": 16, "barrio": "LOS BOSQUINOS", "poblacion_2017": 24721, "hombres_2017": 11920, "mujeres_2017": 12801, "consolidacion": "En consolidación", "fuente": "Base Comunal Barrios (campos asociados a Censo 2017)", "anio_fuente": 2017 }, "geometry": { "type": "Polygon", "coordinates": [ [ [ -70.799801868991196, -33.530629256272213 ], [ -70.799038598848469, -33.530677652694614 ], [ -70.798307078009174, -33.530823576775788 ], [ -70.797516442181092, -33.531050658913486 ], [ -70.795856330506737, -33.531397169325224 ], [ -70.793589940988937, -33.531953386493413 ], [ -70.781971708952838, -33.532909797249268 ], [ -70.788134518487496, -33.537155532489137 ], [ -70.784806955707026, -33.540079533104482 ], [ -70.782470901780755, -33.542017347143037 ], [ -70.780550947835593, -33.542728636070372 ], [ -70.779675160596199, -33.542990399563294 ], [ -70.797818930112342, -33.555650035145405 ], [ -70.802552477340015, -33.55248791625381 ], [ -70.803572804264363, -33.551752656271056 ], [ -70.805498896582293, -33.550615380890555 ], [ -70.805992830089536, -33.550139249942539 ], [ -70.808368536518202, -33.548547043563069 ], [ -70.805320334805543, -33.544617110857295 ], [ -70.805003182909033, -33.544171870587277 ], [ -70.804382476019512, -33.543103875984094 ], [ -70.803764530715497, -33.541669104693227 ], [ -70.799801868991196, -33.530629256272213 ] ] ] } },
{ "type": "Feature", "properties": { "id_barrio": 17, "barrio": "LOS HEROES", "poblacion_2017": 38752, "hombres_2017": 18657, "mujeres_2017": 20095, "consolidacion": "Consolidado", "fuente": "Base Comunal Barrios (campos asociados a Censo 2017)", "anio_fuente": 2017 }, "geometry": { "type": "Polygon", "coordinates": [ [ [ -70.763027348478516, -33.525418223204845 ], [ -70.760883952205347, -33.525413363106438 ], [ -70.76089207742524, -33.526028605664919 ], [ -70.759160309309564, -33.526026057786524 ], [ -70.759146820204492, -33.528916695376317 ], [ -70.762564394198918, -33.531297324190533 ], [ -70.773811313260893, -33.53888759151473 ], [ -70.779675160596199, -33.542990399563294 ], [ -70.780550947835593, -33.542728636070372 ], [ -70.782470901780755, -33.542017347143037 ], [ -70.784806955707026, -33.540079533104482 ], [ -70.788134518487496, -33.537155532489137 ], [ -70.781971708952838, -33.532909797249268 ], [ -70.785460353780948, -33.532603006416778 ], [ -70.784614916220576, -33.529529210501515 ], [ -70.784367597999292, -33.52963458703563 ], [ -70.782535134685787, -33.529648536125777 ], [ -70.782438614579448, -33.529604388030222 ], [ -70.780537593557298, -33.529646167809652 ], [ -70.780557025832323, -33.530084894934419 ], [ -70.778517673453223, -33.530342603602243 ], [ -70.778168297388646, -33.530042731046954 ], [ -70.77819534959292, -33.529338675613545 ], [ -70.777804211216207, -33.529309248906983 ], [ -70.777810054573706, -33.529227027232956 ], [ -70.77755690114877, -33.52912166072921 ], [ -70.7778260411757, -33.52845866073222 ], [ -70.777468201603497, -33.528346407748707 ], [ -70.777868554175939, -33.52744591218066 ], [ -70.777683797659137, -33.527438544235615 ], [ -70.777711471144684, -33.527370861611224 ], [ -70.776535232924331, -33.527381348432449 ], [ -70.77722114296958, -33.525952282911845 ], [ -70.777200684481556, -33.524475486177096 ], [ -70.777077119091558, -33.524449248191459 ], [ -70.774882267707895, -33.524565935516193 ], [ -70.770446017567551, -33.524842034231753 ], [ -70.764263175931404, -33.525355463423459 ], [ -70.763027348478516, -33.525418223204845 ] ] ] } },
{ "type": "Feature", "properties": { "id_barrio": 7, "barrio": "MAIPU CENTRO", "poblacion_2017": 16129, "hombres_2017": 7707, "mujeres_2017": 8422, "consolidacion": "Consolidado", "fuente": "Base Comunal Barrios (campos asociados a Censo 2017)", "anio_fuente": 2017 }, "geometry": { "type": "Polygon", "coordinates": [ [ [ -70.751155596031552, -33.494492922895255 ], [ -70.75114362682524, -33.495064492405795 ], [ -70.751206407266764, -33.495625572347983 ], [ -70.751334535834431, -33.496309128803894 ], [ -70.751445503027611, -33.49630755990669 ], [ -70.752498518422627, -33.503948078636732 ], [ -70.751679053464201, -33.504017969959492 ], [ -70.751855993892093, -33.505688290217577 ], [ -70.746791531582303, -33.506948537372537 ], [ -70.747104384661938, -33.508239146896827 ], [ -70.747099330752121, -33.508699135650126 ], [ -70.746985168181439, -33.508885614788113 ], [ -70.746957579701515, -33.509086309700727 ], [ -70.747212572521278, -33.51035539604139 ], [ -70.755680119362395, -33.51056567626496 ], [ -70.756535635527285, -33.510620362336503 ], [ -70.763105189629485, -33.510744601329733 ], [ -70.76312099966087, -33.51044442550468 ], [ -70.763186363515459, -33.510258626853471 ], [ -70.764998152978151, -33.509912684341714 ], [ -70.763967346970162, -33.506860538725185 ], [ -70.763910582362229, -33.506452103124673 ], [ -70.764100892349049, -33.501858750849763 ], [ -70.764342900434642, -33.494012888847458 ], [ -70.765316551790107, -33.493635060431536 ], [ -70.765310040761207, -33.492902483332756 ], [ -70.76502282803196, -33.492863224600434 ], [ -70.764828040234349, -33.49310623862943 ], [ -70.764576503363202, -33.49320049037442 ], [ -70.764417220922084, -33.493209916699698 ], [ -70.763488392379855, -33.493046577686755 ], [ -70.763144446711649, -33.493077719351639 ], [ -70.759177572732142, -33.494205435510445 ], [ -70.757948699686011, -33.494132211808214 ], [ -70.757424310113706, -33.494428204454074 ], [ -70.757170215086276, -33.493786070435547 ], [ -70.754688458236203, -33.49360830537173 ], [ -70.753874191047785, -33.49347667656702 ], [ -70.752793338686331, -33.493187757637273 ], [ -70.751851553927523, -33.492723816166574 ], [ -70.751155596031552, -33.494492922895255 ] ] ] } },
{ "type": "Feature", "properties": { "id_barrio": 11, "barrio": "PAJARITOS SUR", "poblacion_2017": 9195, "hombres_2017": 4382, "mujeres_2017": 4813, "consolidacion": "Consolidado", "fuente": "Base Comunal Barrios (campos asociados a Censo 2017)", "anio_fuente": 2017 }, "geometry": { "type": "Polygon", "coordinates": [ [ [ -70.755680119362395, -33.51056567626496 ], [ -70.755569719629733, -33.522043938402582 ], [ -70.754839956188604, -33.522170859411858 ], [ -70.754540141291628, -33.522293865395838 ], [ -70.754543308330426, -33.522450668043511 ], [ -70.754320014665709, -33.522521051610816 ], [ -70.754316821643144, -33.522903808119999 ], [ -70.752498979224086, -33.523628294055634 ], [ -70.752315979667472, -33.523184714944406 ], [ -70.752248000621321, -33.522690913735225 ], [ -70.751256112037424, -33.522674024991204 ], [ -70.752453305573525, -33.523717291217686 ], [ -70.752532575385388, -33.52372500330501 ], [ -70.754651264260929, -33.522864507211885 ], [ -70.755561359316047, -33.522438290370566 ], [ -70.755515476847862, -33.525128861055542 ], [ -70.755541722830003, -33.525370139378296 ], [ -70.755631703993757, -33.525592612481361 ], [ -70.756930311122488, -33.526529857414822 ], [ -70.757197043462185, -33.526556228357784 ], [ -70.757123383414637, -33.527237784136091 ], [ -70.757012593856942, -33.527551541364218 ], [ -70.758273427232396, -33.52830817276201 ], [ -70.75915272283217, -33.528919984221957 ], [ -70.759160309309564, -33.526026057786524 ], [ -70.76089207742524, -33.526028605664919 ], [ -70.760917423635263, -33.52330786941728 ], [ -70.760533597372941, -33.523271529940878 ], [ -70.760626056649954, -33.522181575326336 ], [ -70.761451260053505, -33.522193948977765 ], [ -70.761504768981467, -33.521009165914911 ], [ -70.763075591917143, -33.521063888749779 ], [ -70.763161863496435, -33.520413842852079 ], [ -70.765270147503202, -33.517805049189761 ], [ -70.763420309512867, -33.517440447098117 ], [ -70.763456583885386, -33.515140704581412 ], [ -70.763111032906494, -33.510744860826783 ], [ -70.756535635527285, -33.510620362336503 ], [ -70.755680119362395, -33.51056567626496 ] ] ] } },
{ "type": "Feature", "properties": { "id_barrio": 15, "barrio": "PEHUEN", "poblacion_2017": 30345, "hombres_2017": 14564, "mujeres_2017": 15781, "consolidacion": "En consolidación", "fuente": "Base Comunal Barrios (campos asociados a Censo 2017)", "anio_fuente": 2017 }, "geometry": { "type": "Polygon", "coordinates": [ [ [ -70.776535232924331, -33.527381348432449 ], [ -70.777711471144684, -33.527370861611224 ], [ -70.777683797659137, -33.527438544235615 ], [ -70.777868554175939, -33.52744591218066 ], [ -70.777468201603497, -33.528346407748707 ], [ -70.7778260411757, -33.52845866073222 ], [ -70.77755690114877, -33.52912166072921 ], [ -70.777810054573706, -33.529227027232956 ], [ -70.777804211216207, -33.529309248906983 ], [ -70.77819534959292, -33.529338675613545 ], [ -70.778168297388646, -33.530042731046954 ], [ -70.778517673453223, -33.530342603602243 ], [ -70.780557025832323, -33.530084894934419 ], [ -70.780537593557298, -33.529646167809652 ], [ -70.782438614579448, -33.529604388030222 ], [ -70.782535134685787, -33.529648536125777 ], [ -70.784367597999292, -33.52963458703563 ], [ -70.784614916220576, -33.529529210501515 ], [ -70.785460353780948, -33.532603006416778 ], [ -70.793589940988937, -33.531953386493413 ], [ -70.795856330506737, -33.531397169325224 ], [ -70.797516442181092, -33.531050658913486 ], [ -70.798307078009174, -33.530823576775788 ], [ -70.799038598848469, -33.530677652694614 ], [ -70.799801868991196, -33.530629256272213 ], [ -70.799242951174278, -33.528839808051096 ], [ -70.799036431932095, -33.527513729141155 ], [ -70.799004816496293, -33.526593937872541 ], [ -70.799152675583429, -33.520316960739116 ], [ -70.798419274020162, -33.520309648994413 ], [ -70.796867499771565, -33.519942021403551 ], [ -70.785901253664463, -33.518400071506008 ], [ -70.786351577764492, -33.52142778191044 ], [ -70.786519623051618, -33.521952872951765 ], [ -70.785773414211775, -33.52196144896152 ], [ -70.77932903712545, -33.521744592906863 ], [ -70.777172067589689, -33.521608207798202 ], [ -70.77722114296958, -33.525952282911845 ], [ -70.776535232924331, -33.527381348432449 ] ] ] } },
{ "type": "Feature", "properties": { "id_barrio": 5, "barrio": "PORTAL DEL SOL", "poblacion_2017": 21717, "hombres_2017": 10495, "mujeres_2017": 11222, "consolidacion": "En consolidación", "fuente": "Base Comunal Barrios (campos asociados a Censo 2017)", "anio_fuente": 2017 }, "geometry": { "type": "Polygon", "coordinates": [ [ [ -70.778707563810215, -33.497312504144269 ], [ -70.778491363690677, -33.501168569152703 ], [ -70.778596872760914, -33.50106985161095 ], [ -70.779144139954653, -33.501179489521128 ], [ -70.778647213269139, -33.50873966530861 ], [ -70.780706734506438, -33.50813043392089 ], [ -70.787915764318583, -33.505552026779398 ], [ -70.788863472609847, -33.505328782521985 ], [ -70.789312074990931, -33.505270184414108 ], [ -70.791013056442608, -33.505421893113414 ], [ -70.79628510900028, -33.506882641167977 ], [ -70.79783403174838, -33.507248785014625 ], [ -70.799211262854229, -33.507641859124604 ], [ -70.799166629099915, -33.505003841513052 ], [ -70.799077670981447, -33.504217058964912 ], [ -70.798871107232515, -33.503488945874174 ], [ -70.798561060806051, -33.502772208689038 ], [ -70.798147440857818, -33.502112350428277 ], [ -70.797280935179728, -33.501079787934756 ], [ -70.796688082630439, -33.500586379261243 ], [ -70.796094565872735, -33.500186267460521 ], [ -70.794910170891853, -33.499593035290232 ], [ -70.794338053698368, -33.499389402506878 ], [ -70.792837660454694, -33.499005234467809 ], [ -70.779269341229892, -33.496051930353467 ], [ -70.778707563810215, -33.497312504144269 ] ] ] } },
{ "type": "Feature", "properties": { "id_barrio": 4, "barrio": "RINCONADA RURAL", "poblacion_2017": 3562, "hombres_2017": 1837, "mujeres_2017": 1725, "consolidacion": "En crecimiento", "fuente": "Base Comunal Barrios (campos asociados a Censo 2017)", "anio_fuente": 2017 }, "geometry": { "type": "Polygon", "coordinates": [ [ [ -70.805339815168878, -33.461428067783089 ], [ -70.804737931573214, -33.462277390559017 ], [ -70.804107071909129, -33.462417778467078 ], [ -70.803834923475691, -33.462434355020271 ], [ -70.803931699520817, -33.464895905249925 ], [ -70.803842706308359, -33.464997412443012 ], [ -70.80453783511642, -33.466135791649343 ], [ -70.8051097472066, -33.466243544127494 ], [ -70.805897560899979, -33.466618598424432 ], [ -70.805976664568149, -33.466754759008921 ], [ -70.806249772016898, -33.468011807243258 ], [ -70.806738240532027, -33.469302640490788 ], [ -70.807363833855973, -33.471373992644509 ], [ -70.807561896189654, -33.471719297393399 ], [ -70.808435002462261, -33.47282813507497 ], [ -70.808840666074175, -33.473442572851376 ], [ -70.808864607245596, -33.474632214930338 ], [ -70.808726899239446, -33.477557688392601 ], [ -70.808763198384185, -33.477934145978367 ], [ -70.809363348986906, -33.47952738623227 ], [ -70.809388514359838, -33.479812986505159 ], [ -70.809330809685861, -33.480736177079088 ], [ -70.809295184673843, -33.481103219280001 ], [ -70.809221820903318, -33.481273457476469 ], [ -70.808177112565716, -33.482347996692212 ], [ -70.80771324425092, -33.482693093997135 ], [ -70.807527935465288, -33.482796491546587 ], [ -70.80727924025966, -33.482856506675148 ], [ -70.807199143672648, -33.48293420188142 ], [ -70.806952081647282, -33.483304327405989 ], [ -70.806684922850522, -33.483864050331732 ], [ -70.806686260785682, -33.483928473688636 ], [ -70.806817758169885, -33.484011138626023 ], [ -70.806976791418322, -33.484262565113987 ], [ -70.807005251521417, -33.484475620092994 ], [ -70.806960878989912, -33.484653485345568 ], [ -70.80686532146305, -33.484912654027433 ], [ -70.806535019859069, -33.485441072889358 ], [ -70.806186158892089, -33.485538798466024 ], [ -70.806020235045096, -33.486113153654614 ], [ -70.805894755924058, -33.486320397129951 ], [ -70.805869645614777, -33.48701877516573 ], [ -70.805780009824716, -33.487507830409911 ], [ -70.804922265346875, -33.488563508462221 ], [ -70.803884778658045, -33.489529161725336 ], [ -70.803278690264634, -33.489972978623392 ], [ -70.802988176052992, -33.490335674247035 ], [ -70.802853871370033, -33.490349712827836 ], [ -70.802279891397561, -33.490201813955657 ], [ -70.801876871628949, -33.490241057188406 ], [ -70.801298313432369, -33.49046399255375 ], [ -70.800531825492328, -33.490917382484454 ], [ -70.800010516179853, -33.491155922230512 ], [ -70.799295162347335, -33.491220906019173 ], [ -70.79881193530764, -33.49136230132342 ], [ -70.797751977868046, -33.491886335150518 ], [ -70.797258889368507, -33.49207743637524 ], [ -70.796712883609885, -33.492232109683066 ], [ -70.79424384649144, -33.492633798097742 ], [ -70.793261773857367, -33.492983859254487 ], [ -70.792629080943129, -33.493436133709359 ], [ -70.792159126764943, -33.494000660432711 ], [ -70.791738594556733, -33.494023428614639 ], [ -70.791603246034427, -33.494106972253036 ], [ -70.791161871651568, -33.494642532133163 ], [ -70.790784255582778, -33.49588678374743 ], [ -70.790761035912936, -33.496089524885448 ], [ -70.790546551390236, -33.49640680257319 ], [ -70.78991039539865, -33.496681267622748 ], [ -70.789477694966763, -33.49694224762009 ], [ -70.788440807402353, -33.497235365836588 ], [ -70.787548893352906, -33.49784474064257 ], [ -70.793674004608903, -33.49920319525615 ], [ -70.794659743105314, -33.499493758719829 ], [ -70.795477818003548, -33.499850806053779 ], [ -70.796094565872735, -33.500186267460521 ], [ -70.796636430526348, -33.500548188259941 ], [ -70.79735918961245, -33.501153413549545 ], [ -70.79822279880004, -33.502215771162348 ], [ -70.798561060806051, -33.502772208689038 ], [ -70.798760962958411, -33.503210856323072 ], [ -70.799077670981447, -33.504217058964912 ], [ -70.799166629099915, -33.505003841513052 ], [ -70.799207467501205, -33.506326289554352 ], [ -70.799259589451538, -33.515843419628439 ], [ -70.799004816496293, -33.526593937872541 ], [ -70.799084356980757, -33.528007622971558 ], [ -70.799242951174278, -33.528839808051096 ], [ -70.799731546663523, -33.530438016845018 ], [ -70.801928422370864, -33.53657790503231 ], [ -70.803764530715497, -33.541669104693227 ], [ -70.804263490347779, -33.542850949379854 ], [ -70.804640712419243, -33.543586807603759 ], [ -70.805320334805543, -33.544617110857295 ], [ -70.808368536518202, -33.548547043563069 ], [ -70.812554603221429, -33.54564886509803 ], [ -70.814947971948357, -33.544080773190167 ], [ -70.815589913668774, -33.544039790667576 ], [ -70.81624561645971, -33.544061734795925 ], [ -70.816334162887088, -33.543902623893217 ], [ -70.816215423097148, -33.543728518840993 ], [ -70.815873385096737, -33.543562198432085 ], [ -70.815660699473341, -33.543353400562971 ], [ -70.815445695038591, -33.542711779498795 ], [ -70.815296320064235, -33.542504845219426 ], [ -70.813250523351684, -33.540668140563511 ], [ -70.812736956948882, -33.540328475015606 ], [ -70.812309775237395, -33.540241758633549 ], [ -70.811508753085761, -33.53972142862284 ], [ -70.81013718691392, -33.538983996811488 ], [ -70.809707608294431, -33.538555706412069 ], [ -70.808615364757273, -33.537946644460568 ], [ -70.808109036239799, -33.537516676636223 ], [ -70.807692645950851, -33.537058338067645 ], [ -70.806268330997796, -33.536515512713038 ], [ -70.805723459270439, -33.536221364612871 ], [ -70.805389956712361, -33.535815915895014 ], [ -70.805479489242202, -33.533632292226997 ], [ -70.805399157819906, -33.532600921331436 ], [ -70.805011871287704, -33.531889648567855 ], [ -70.804904721447272, -33.53105705971128 ], [ -70.804608694977119, -33.530624009156696 ], [ -70.804712261411638, -33.529454687923185 ], [ -70.805058081625447, -33.528786834635149 ], [ -70.805303912895425, -33.528634455904829 ], [ -70.805558771447608, -33.528576632489575 ], [ -70.805886464070085, -33.528639487231679 ], [ -70.806303911209923, -33.528908442235135 ], [ -70.806667810301491, -33.529029382662245 ], [ -70.807025828250758, -33.528997103526343 ], [ -70.807807416727613, -33.528444624042621 ], [ -70.810031734028627, -33.529728731606696 ], [ -70.81208817440934, -33.530672577145957 ], [ -70.813699922469169, -33.53179874956097 ], [ -70.813992183877616, -33.533273392653605 ], [ -70.814931993926876, -33.533674438948488 ], [ -70.818402971711677, -33.537834826916651 ], [ -70.821517199301738, -33.537342662370122 ], [ -70.823108438441267, -33.537400399301859 ], [ -70.826119532778577, -33.53656696288013 ], [ -70.827783129681777, -33.536289913135633 ], [ -70.828997404808831, -33.536280997216437 ], [ -70.829485456106752, -33.536174590062814 ], [ -70.831219032620396, -33.53535539368881 ], [ -70.833838505782836, -33.53497845241629 ], [ -70.835134785635219, -33.534233311478687 ], [ -70.835692142428684, -33.534238576022872 ], [ -70.838487303051593, -33.534485667713689 ], [ -70.839390729207821, -33.534386579393136 ], [ -70.841867957936614, -33.533763593794099 ], [ -70.842742489724856, -33.533682946607392 ], [ -70.843753682138967, -33.534222484136038 ], [ -70.845775112644773, -33.535049051306821 ], [ -70.846524180435679, -33.535745774295151 ], [ -70.847049574242988, -33.536003960556585 ], [ -70.847695173247359, -33.536012362156825 ], [ -70.848720849456654, -33.53621798464917 ], [ -70.849373750386192, -33.536411132372514 ], [ -70.851335257509263, -33.537468453261674 ], [ -70.851545127810283, -33.537478841137876 ], [ -70.852112008993089, -33.536415284763159 ], [ -70.852293081578949, -33.535975214822294 ], [ -70.85259588398246, -33.535609973914582 ], [ -70.8532565119677, -33.535234867345913 ], [ -70.853767396395341, -33.535033336870498 ], [ -70.85521225412954, -33.533785278099543 ], [ -70.855760493515163, -33.533222471808671 ], [ -70.856017706143817, -33.532677552192958 ], [ -70.857589258269542, -33.530733203583814 ], [ -70.858522181422373, -33.53074174516135 ], [ -70.858792192896559, -33.530701618837526 ], [ -70.859564056647486, -33.530401462061867 ], [ -70.861239712839748, -33.53016436590719 ], [ -70.862934489155904, -33.530693466994641 ], [ -70.864200725693593, -33.530476017261968 ], [ -70.864824180596074, -33.530520734557264 ], [ -70.865507501785629, -33.530501422548987 ], [ -70.865856823278477, -33.530613389015578 ], [ -70.866897423921742, -33.5311387647657 ], [ -70.867869988472322, -33.531128607016718 ], [ -70.868492995965255, -33.531308576469876 ], [ -70.869032358255311, -33.531322979470119 ], [ -70.870137342436706, -33.531680528483683 ], [ -70.870673829120392, -33.532154871293955 ], [ -70.871093299599082, -33.532382993021919 ], [ -70.871579745857332, -33.532533450222537 ], [ -70.872052436708756, -33.532436127247834 ], [ -70.872653397674995, -33.532201594842945 ], [ -70.873263569117427, -33.532097677935759 ], [ -70.874592136600498, -33.532118149016547 ], [ -70.874956082434423, -33.532049512893423 ], [ -70.875361854883522, -33.531876539397103 ], [ -70.875976523652213, -33.531731961401334 ], [ -70.87648819739745, -33.531368007706831 ], [ -70.87729644234372, -33.530481037275266 ], [ -70.877634493760738, -33.530304574503816 ], [ -70.877931296820364, -33.530227931253222 ], [ -70.878576545012578, -33.529879978436767 ], [ -70.879984888166007, -33.529592578991014 ], [ -70.88220521954382, -33.528905061073459 ], [ -70.882407036187217, -33.528622444176648 ], [ -70.88323410884891, -33.527816309287751 ], [ -70.883832198677084, -33.528041670685319 ], [ -70.884590124229561, -33.528174419335649 ], [ -70.885032342827216, -33.528411165003831 ], [ -70.885585267860833, -33.52813672347844 ], [ -70.885991482312761, -33.52784647905608 ], [ -70.886384202586029, -33.527709739685335 ], [ -70.886498374562024, -33.527590770134225 ], [ -70.886892869401549, -33.527566723269992 ], [ -70.888301827834624, -33.526738159631741 ], [ -70.888837221245936, -33.526076210711501 ], [ -70.888914371732099, -33.525245406386055 ], [ -70.888782694085961, -33.525085096760812 ], [ -70.888932414623227, -33.524852861643737 ], [ -70.889852489874556, -33.52377924326899 ], [ -70.889942577467579, -33.52332698376469 ], [ -70.89016669549828, -33.523034996633221 ], [ -70.890363483456298, -33.522662267159852 ], [ -70.891191256588172, -33.522419675756687 ], [ -70.891340392365876, -33.522083742468503 ], [ -70.891663638424674, -33.521925504757981 ], [ -70.892094491177815, -33.521409422406954 ], [ -70.892156477304141, -33.519961136225106 ], [ -70.892553397064376, -33.519756681163187 ], [ -70.894330230002325, -33.519652860927359 ], [ -70.89444946109063, -33.519705143841009 ], [ -70.895205632396284, -33.519035280792046 ], [ -70.89603388169806, -33.518693456899527 ], [ -70.896475075643053, -33.518375589648436 ], [ -70.896776076526621, -33.518447629626372 ], [ -70.897072048251516, -33.518366445329271 ], [ -70.898195570335872, -33.517650357454563 ], [ -70.898514370391297, -33.517320833649144 ], [ -70.898677117649171, -33.516808839455749 ], [ -70.898877215534498, -33.516697559066557 ], [ -70.899154407329704, -33.516373180555611 ], [ -70.899195399777014, -33.516124565672477 ], [ -70.899456273229688, -33.515484817088918 ], [ -70.899707138946027, -33.515264545430313 ], [ -70.899786214171328, -33.514988293087946 ], [ -70.900076993659468, -33.514578036190606 ], [ -70.900360621422635, -33.514010078987809 ], [ -70.900962212777969, -33.513383132768901 ], [ -70.900963210368843, -33.513274907100808 ], [ -70.901369113596843, -33.513160463455499 ], [ -70.901899061135921, -33.512872777592378 ], [ -70.903064003912135, -33.511948604405951 ], [ -70.903516069121167, -33.510855025608421 ], [ -70.903742503252445, -33.510549453673896 ], [ -70.903960835415745, -33.510519044165527 ], [ -70.904720375270699, -33.51059303248848 ], [ -70.905434434070699, -33.510848071187489 ], [ -70.90603716848824, -33.510766652794288 ], [ -70.90650593940687, -33.510574574795207 ], [ -70.90737491007701, -33.510101292995188 ], [ -70.908394964198649, -33.509630186013212 ], [ -70.910904908582367, -33.508806946091894 ], [ -70.911167867426144, -33.508924626867191 ], [ -70.911555908756227, -33.509513805586408 ], [ -70.912219582050412, -33.509909351880303 ], [ -70.913264357179585, -33.510073569457418 ], [ -70.914978818312107, -33.510615182767339 ], [ -70.917161839627155, -33.510360474620107 ], [ -70.917990592832027, -33.510537012724065 ], [ -70.919318976509928, -33.511264896787402 ], [ -70.91997770105111, -33.51172360509041 ], [ -70.920143801051353, -33.511932942579683 ], [ -70.920382257829573, -33.511960806768833 ], [ -70.920705361898669, -33.511739372536205 ], [ -70.92127820277021, -33.511234516392456 ], [ -70.921526557113467, -33.510842904580386 ], [ -70.922738682256607, -33.509750993912583 ], [ -70.923200080673922, -33.509410175081769 ], [ -70.923613354216968, -33.508795065921987 ], [ -70.924033238740975, -33.508630736468625 ], [ -70.924332500086052, -33.508594523275782 ], [ -70.924659706495689, -33.508422612320494 ], [ -70.925413825309576, -33.508343258055909 ], [ -70.926244155064325, -33.508515207634055 ], [ -70.927385366043694, -33.508416293586734 ], [ -70.92758322421443, -33.508282456716593 ], [ -70.927721180785738, -33.508041343989987 ], [ -70.927927851894836, -33.507379839775382 ], [ -70.928386655913187, -33.507241941033499 ], [ -70.929079600979875, -33.50693807644172 ], [ -70.929678771334281, -33.505986399873819 ], [ -70.929916032524474, -33.505279327767759 ], [ -70.929871225993224, -33.502367330727232 ], [ -70.929395328416859, -33.501279102319529 ], [ -70.928860713750836, -33.500818512878205 ], [ -70.928592175774639, -33.500191458912028 ], [ -70.928370604791525, -33.499103774212173 ], [ -70.928154184198021, -33.498520996671957 ], [ -70.927550264558391, -33.498043443557648 ], [ -70.926602611277616, -33.497611813699088 ], [ -70.925938682577595, -33.496869163267256 ], [ -70.925756930175737, -33.495496800094571 ], [ -70.925532893030734, -33.494675167741569 ], [ -70.925094144257912, -33.492616942343943 ], [ -70.924618324200225, -33.491830783037344 ], [ -70.923946450185966, -33.490984544018332 ], [ -70.923342407073022, -33.490376212329664 ], [ -70.922424467672286, -33.489610432911547 ], [ -70.920828887409783, -33.488647748864402 ], [ -70.91999988625372, -33.488069942555292 ], [ -70.919622899477389, -33.487872887991024 ], [ -70.919332190644141, -33.48776016166201 ], [ -70.917939763111903, -33.487542758467143 ], [ -70.91715675502131, -33.487554878414386 ], [ -70.915866593509193, -33.48727725411073 ], [ -70.914665323337246, -33.487110963440301 ], [ -70.913636213542389, -33.486698524199305 ], [ -70.91330252960276, -33.486374532480674 ], [ -70.913085300947529, -33.485534733153337 ], [ -70.912919786933159, -33.483896068947466 ], [ -70.91282924198272, -33.483663006936268 ], [ -70.912366252088717, -33.483575469599607 ], [ -70.911127255757918, -33.483725345080913 ], [ -70.91011102412935, -33.483605749064303 ], [ -70.908956382498246, -33.483262839347795 ], [ -70.907676231617145, -33.483345681641381 ], [ -70.906695462953437, -33.483324708804908 ], [ -70.905581376471332, -33.482990159897881 ], [ -70.902906868506108, -33.482485694027716 ], [ -70.902778097921356, -33.482379460091664 ], [ -70.90256725671945, -33.482026498238483 ], [ -70.90223042558388, -33.48172506789173 ], [ -70.902228947240957, -33.481657455899033 ], [ -70.900291015846847, -33.481416666023634 ], [ -70.897577714184678, -33.480209295409963 ], [ -70.895127759125288, -33.478907661164875 ], [ -70.893797711328588, -33.47858081498439 ], [ -70.892633418005587, -33.478499411265886 ], [ -70.891395726694043, -33.478491257174291 ], [ -70.890758544875879, -33.478618213067428 ], [ -70.890149985155105, -33.478870977531862 ], [ -70.88655428141584, -33.480941246155588 ], [ -70.885261242026417, -33.481235969810193 ], [ -70.883877780249207, -33.481315629804222 ], [ -70.882363828778722, -33.480959894747976 ], [ -70.88163797957219, -33.480704896484006 ], [ -70.876693465636166, -33.478660713859298 ], [ -70.875322435228114, -33.478208037719675 ], [ -70.87445398721772, -33.478121985310949 ], [ -70.873734740707576, -33.477984070939861 ], [ -70.87301225788913, -33.477976958214676 ], [ -70.869669439601182, -33.478406193894209 ], [ -70.869052108735829, -33.478582337838546 ], [ -70.868620222590494, -33.478593359160783 ], [ -70.868194952805666, -33.47853664848305 ], [ -70.867250499002125, -33.478262315971335 ], [ -70.866397382852924, -33.477887404545669 ], [ -70.865309603265402, -33.477718920512125 ], [ -70.864898229059307, -33.477761184075462 ], [ -70.864574029695632, -33.477869767949876 ], [ -70.864132078895722, -33.478462574952111 ], [ -70.863319082189946, -33.478641633306609 ], [ -70.862142083185432, -33.479159816308943 ], [ -70.861281344749656, -33.479434265931999 ], [ -70.859404091971427, -33.479728477858394 ], [ -70.857968312303626, -33.479736489975551 ], [ -70.856246342148495, -33.479586452755086 ], [ -70.854429864916867, -33.479577582169789 ], [ -70.850546693642528, -33.479464302326392 ], [ -70.84950578837713, -33.479349086078329 ], [ -70.848629425089769, -33.479159261691692 ], [ -70.848090790775728, -33.478847165795152 ], [ -70.847812267140782, -33.478526677884567 ], [ -70.847687708325978, -33.477617734207641 ], [ -70.847623911469128, -33.476608688006799 ], [ -70.847293110460697, -33.476122148185198 ], [ -70.846937380332804, -33.475744193924349 ], [ -70.846794293136853, -33.475466770952295 ], [ -70.846703909039377, -33.47496312084337 ], [ -70.846470210037765, -33.474614907815344 ], [ -70.845717699877426, -33.473999379148204 ], [ -70.845338279559769, -33.473454941725464 ], [ -70.844336032227304, -33.472351650388468 ], [ -70.843499088102575, -33.471336069679687 ], [ -70.843201025356336, -33.470916664561443 ], [ -70.843132076875577, -33.470106083368471 ], [ -70.842979824212279, -33.469585312315942 ], [ -70.842194204344906, -33.468609538601434 ], [ -70.841102750809824, -33.467115267585477 ], [ -70.840467622172639, -33.466687335533372 ], [ -70.839985790351207, -33.466464534978421 ], [ -70.838784194254856, -33.466581566437135 ], [ -70.837470737662599, -33.466799443292814 ], [ -70.835579423623088, -33.46673729142541 ], [ -70.834223137093161, -33.466486837082435 ], [ -70.83177258400859, -33.46594143020257 ], [ -70.830264018273581, -33.465467735639358 ], [ -70.829788201416932, -33.465145609138617 ], [ -70.829707528203315, -33.465146800245357 ], [ -70.828845710458765, -33.465416531159526 ], [ -70.827940110242153, -33.465795116640166 ], [ -70.826147166556638, -33.467327537733013 ], [ -70.825515917954732, -33.467706571755642 ], [ -70.824678232611703, -33.46792632038138 ], [ -70.824161681688437, -33.4677941477768 ], [ -70.823618563926104, -33.467292630219639 ], [ -70.8233505820928, -33.467116215505285 ], [ -70.822670190208299, -33.466995464967404 ], [ -70.821371821324647, -33.466667365184712 ], [ -70.820878868299573, -33.466634029617303 ], [ -70.820300398179327, -33.46646667788405 ], [ -70.818114595631457, -33.466390549162142 ], [ -70.817658526213975, -33.466239426779694 ], [ -70.817253132635514, -33.46616421092034 ], [ -70.816666551975928, -33.465897764813 ], [ -70.816400158988912, -33.465861088109115 ], [ -70.816134276964064, -33.465864984847094 ], [ -70.815803774167961, -33.465946481026705 ], [ -70.815139610271302, -33.465974246515174 ], [ -70.814364446544886, -33.465854837986946 ], [ -70.814147026591797, -33.465731770108981 ], [ -70.813756803319379, -33.465367747256153 ], [ -70.81368240511118, -33.465202005509113 ], [ -70.813534162105526, -33.465123012770952 ], [ -70.812803971674697, -33.464466369874899 ], [ -70.812583047095288, -33.464352368303189 ], [ -70.812050678329683, -33.4638461318917 ], [ -70.811044136935891, -33.46315744666817 ], [ -70.810187968401806, -33.462908434206938 ], [ -70.809593688380403, -33.462479744260413 ], [ -70.809191712567397, -33.462341326078878 ], [ -70.808919106454837, -33.462182982519714 ], [ -70.808689597340205, -33.461978918830852 ], [ -70.808236759882718, -33.461868294425045 ], [ -70.807861335808624, -33.46156716250696 ], [ -70.807563619630514, -33.461413690198732 ], [ -70.806210887350844, -33.461424394009541 ], [ -70.805527125345733, -33.461348686667613 ], [ -70.805339815168878, -33.461428067783089 ] ] ] } },
{ "type": "Feature", "properties": { "id_barrio": 20, "barrio": "SANTA ANA DE CHENA", "poblacion_2017": 1575, "hombres_2017": 790, "mujeres_2017": 785, "consolidacion": "Sin Información", "fuente": "Base Comunal Barrios (campos asociados a Censo 2017)", "anio_fuente": 2017 }, "geometry": { "type": "Polygon", "coordinates": [ [ [ -70.754374925606072, -33.55627932286859 ], [ -70.763866926816746, -33.566962622285082 ], [ -70.767079408081145, -33.571519353784318 ], [ -70.767778588967857, -33.571237411476766 ], [ -70.768974794269525, -33.571057661825712 ], [ -70.769160772658793, -33.571460807733146 ], [ -70.776819504864307, -33.569499327654896 ], [ -70.773013980577062, -33.561229204751996 ], [ -70.775644683201932, -33.560179244638285 ], [ -70.779975116300065, -33.558315150342779 ], [ -70.786641517837708, -33.556252117806288 ], [ -70.793127594456109, -33.552377328060999 ], [ -70.783043194346035, -33.545340906039158 ], [ -70.769851293121235, -33.551390350535428 ], [ -70.770643436186532, -33.553712950226561 ], [ -70.768800687149238, -33.554131254994836 ], [ -70.760630936664015, -33.557347773821007 ], [ -70.757804638813568, -33.55439124786475 ], [ -70.754374925606072, -33.55627932286859 ] ] ] } },
{ "type": "Feature", "properties": { "id_barrio": 6, "barrio": "HOSPITAL-CAMPOS DE BATALLA", "poblacion_2017": 22628, "hombres_2017": 10965, "mujeres_2017": 11663, "consolidacion": "Consolidado", "fuente": "Base Comunal Barrios (campos asociados a Censo 2017)", "anio_fuente": 2017 }, "geometry": { "type": "Polygon", "coordinates": [ [ [ -70.763967346970162, -33.506860538725185 ], [ -70.764998152978151, -33.509912684341714 ], [ -70.770204854893109, -33.50894108514737 ], [ -70.770586138230328, -33.508931128601048 ], [ -70.776026610955981, -33.509341453414407 ], [ -70.776385644647149, -33.509306904034347 ], [ -70.778647213269139, -33.50873966530861 ], [ -70.779144139954653, -33.501179489521128 ], [ -70.778596872760914, -33.50106985161095 ], [ -70.778491363690677, -33.501168569152703 ], [ -70.778707563810215, -33.497312504144269 ], [ -70.779269341229892, -33.496051930353467 ], [ -70.771197273978117, -33.494308612164836 ], [ -70.765310040761207, -33.492902483332756 ], [ -70.765316551790107, -33.493635060431536 ], [ -70.764342900434642, -33.494012888847458 ], [ -70.763911502765936, -33.506543395961309 ], [ -70.763967346970162, -33.506860538725185 ] ] ] } },
{ "type": "Feature", "properties": { "id_barrio": 14, "barrio": "SOL PONIENTE", "poblacion_2017": 49783, "hombres_2017": 23980, "mujeres_2017": 25803, "consolidacion": "Consolidado", "fuente": "Base Comunal Barrios (campos asociados a Censo 2017)", "anio_fuente": 2017 }, "geometry": { "type": "Polygon", "coordinates": [ [ [ -70.784127455172708, -33.506906328289737 ], [ -70.784187021531025, -33.506993675401034 ], [ -70.784199156050931, -33.507156423757863 ], [ -70.784114846327427, -33.507767916998333 ], [ -70.784480006713551, -33.509647613907561 ], [ -70.785004693221609, -33.513108406315638 ], [ -70.785518974515014, -33.515928902245264 ], [ -70.785901253664463, -33.518400071506008 ], [ -70.796867499771565, -33.519942021403551 ], [ -70.798419274020162, -33.520309648994413 ], [ -70.799152675583429, -33.520316960739116 ], [ -70.799259589451538, -33.515843419628439 ], [ -70.799211262854229, -33.507641859124604 ], [ -70.79783403174838, -33.507248785014625 ], [ -70.79628510900028, -33.506882641167977 ], [ -70.791013056442608, -33.505421893113414 ], [ -70.789565893905603, -33.505270060465612 ], [ -70.788863472609847, -33.505328782521985 ], [ -70.787915764318583, -33.505552026779398 ], [ -70.784127455172708, -33.506906328289737 ] ] ] } },
{ "type": "Feature", "properties": { "id_barrio": 12, "barrio": "TEMPLO VOTIVO", "poblacion_2017": 22742, "hombres_2017": 10887, "mujeres_2017": 11855, "consolidacion": "Consolidado", "fuente": "Base Comunal Barrios (campos asociados a Censo 2017)", "anio_fuente": 2017 }, "geometry": { "type": "Polygon", "coordinates": [ [ [ -70.770204854893109, -33.50894108514737 ], [ -70.763186363515459, -33.510258626853471 ], [ -70.76312099966087, -33.51044442550468 ], [ -70.763105189629485, -33.510744601329733 ], [ -70.763456583885386, -33.515140704581412 ], [ -70.763420309512867, -33.517440447098117 ], [ -70.765270147503202, -33.517805049189761 ], [ -70.763161863496435, -33.520413842852079 ], [ -70.763075591917143, -33.521063888749779 ], [ -70.761504768981467, -33.521009165914911 ], [ -70.761451260053505, -33.522193948977765 ], [ -70.760626056649954, -33.522181575326336 ], [ -70.760533597372941, -33.523271529940878 ], [ -70.760917423635263, -33.52330786941728 ], [ -70.760883952205347, -33.525413363106438 ], [ -70.76266319675625, -33.525438771496617 ], [ -70.764263175931404, -33.525355463423459 ], [ -70.770446017567551, -33.524842034231753 ], [ -70.774882267707895, -33.524565935516193 ], [ -70.777077119091558, -33.524449248191459 ], [ -70.777200684481556, -33.524475486177096 ], [ -70.777172067589689, -33.521608207798202 ], [ -70.778099832389884, -33.521650902918687 ], [ -70.777953027580821, -33.518203774499483 ], [ -70.777895907070217, -33.513516314521318 ], [ -70.777852110025336, -33.512990669817349 ], [ -70.778054402728088, -33.508895929826679 ], [ -70.776385644647149, -33.509306904034347 ], [ -70.776026610955981, -33.509341453414407 ], [ -70.770586138230328, -33.508931128601048 ], [ -70.770204854893109, -33.50894108514737 ] ] ] } },
{ "type": "Feature", "properties": { "id_barrio": 13, "barrio": "PARQUE TRES PONIENTE", "poblacion_2017": 21719, "hombres_2017": 10559, "mujeres_2017": 11160, "consolidacion": "Consolidado", "fuente": "Base Comunal Barrios (campos asociados a Censo 2017)", "anio_fuente": 2017 }, "geometry": { "type": "Polygon", "coordinates": [ [ [ -70.785044691661881, -33.513333089087062 ], [ -70.784480006713551, -33.509647613907561 ], [ -70.784114846327427, -33.507767916998333 ], [ -70.784199156050931, -33.507156423757863 ], [ -70.784187021531025, -33.506993675401034 ], [ -70.784127455172708, -33.506906328289737 ], [ -70.780610957332158, -33.508163297028275 ], [ -70.778054402728088, -33.508895929826679 ], [ -70.777852110025336, -33.512990669817349 ], [ -70.777895907070217, -33.513516314521318 ], [ -70.777953027580821, -33.518203774499483 ], [ -70.778099832389884, -33.521650902918687 ], [ -70.77932903712545, -33.521744592906863 ], [ -70.785773414211775, -33.52196144896152 ], [ -70.786519623051618, -33.521952872951765 ], [ -70.786351577764492, -33.52142778191044 ], [ -70.785518974515014, -33.515928902245264 ], [ -70.785044691661881, -33.513333089087062 ] ] ] } },
{ "type": "Feature", "properties": { "id_barrio": 1, "barrio": "LO ERRAZURIZ", "poblacion_2017": 31208, "hombres_2017": 14730, "mujeres_2017": 16478, "consolidacion": "Consolidado", "fuente": "Base Comunal Barrios (campos asociados a Censo 2017)", "anio_fuente": 2017 }, "geometry": { "type": "Polygon", "coordinates": [ [ [ -70.724465136479878, -33.481373867334426 ], [ -70.724744037401095, -33.482407599559942 ], [ -70.725067021347797, -33.482347958536835 ], [ -70.726049865570531, -33.482009527414498 ], [ -70.726545669723947, -33.482015235760954 ], [ -70.726876859312711, -33.482169567223693 ], [ -70.727250425577708, -33.482570797799525 ], [ -70.727502491863092, -33.482744972751433 ], [ -70.728093542885787, -33.482928716887173 ], [ -70.728475978703017, -33.482917255420062 ], [ -70.730016649867295, -33.482562840289802 ], [ -70.731315492120288, -33.482577520865597 ], [ -70.731315855242713, -33.484096454314738 ], [ -70.737652235647474, -33.484364806065898 ], [ -70.739341571629438, -33.48447531531491 ], [ -70.740723958973945, -33.484721346596075 ], [ -70.741978455789265, -33.485157059268573 ], [ -70.743198006398941, -33.485802028812643 ], [ -70.744708435708461, -33.486929040815866 ], [ -70.751488912564653, -33.492520147373519 ], [ -70.752793338686331, -33.493187757637273 ], [ -70.753874191047785, -33.49347667656702 ], [ -70.754688458236203, -33.49360830537173 ], [ -70.757170215086276, -33.493786070435547 ], [ -70.757043815748034, -33.493536512063372 ], [ -70.756722771046142, -33.493150220028646 ], [ -70.755849776706071, -33.492575279147225 ], [ -70.755410129165341, -33.492212486202476 ], [ -70.754552832465791, -33.491076353273449 ], [ -70.753558641338799, -33.4901323222808 ], [ -70.752617756775479, -33.489355363650361 ], [ -70.752075589424038, -33.488732075033539 ], [ -70.750999316976205, -33.487736246337505 ], [ -70.750151362550369, -33.487065119894787 ], [ -70.749624790284656, -33.486731003735279 ], [ -70.748585212511358, -33.486180162469729 ], [ -70.747608734971649, -33.485353009133775 ], [ -70.746654262016165, -33.484146782314184 ], [ -70.745895068908567, -33.482967103540275 ], [ -70.745684775196082, -33.482559746471367 ], [ -70.745061213000056, -33.481635165536701 ], [ -70.744048933709323, -33.480359839156115 ], [ -70.742359897416833, -33.47847177834533 ], [ -70.740842256427754, -33.476355833708475 ], [ -70.73747742991111, -33.472078904296623 ], [ -70.737080848214376, -33.471651597409561 ], [ -70.736738182938197, -33.471381349553155 ], [ -70.733800055745249, -33.469583873864416 ], [ -70.733074951048096, -33.469708745284542 ], [ -70.731038177150381, -33.470396970278827 ], [ -70.727196932423723, -33.471508689344276 ], [ -70.725615939999273, -33.471887800172439 ], [ -70.724868656872331, -33.47218891799676 ], [ -70.724195352505447, -33.472365122520046 ], [ -70.723101876555944, -33.472733993334337 ], [ -70.722512149812388, -33.472871749499944 ], [ -70.72228763504387, -33.47297519629884 ], [ -70.721968947142202, -33.473220037368016 ], [ -70.72227283251631, -33.473676877193157 ], [ -70.723558682790355, -33.480291933261825 ], [ -70.723736733457386, -33.480578803891888 ], [ -70.724300068190999, -33.48114093732471 ], [ -70.724465136479878, -33.481373867334426 ] ] ] } },
{ "type": "Feature", "properties": { "id_barrio": 8, "barrio": "RIESCO-CENTRAL", "poblacion_2017": 15645, "hombres_2017": 7368, "mujeres_2017": 8277, "consolidacion": "Consolidado", "fuente": "Base Comunal Barrios (campos asociados a Censo 2017)", "anio_fuente": 2017 }, "geometry": { "type": "Polygon", "coordinates": [ [ [ -70.736817840904934, -33.50343033282001 ], [ -70.739863746503303, -33.510099140124126 ], [ -70.747212572521278, -33.51035539604139 ], [ -70.746957579701515, -33.509086309700727 ], [ -70.746985168181439, -33.508885614788113 ], [ -70.747099330752121, -33.508699135650126 ], [ -70.747104384661938, -33.508239146896827 ], [ -70.746791531582303, -33.506948537372537 ], [ -70.751855993892093, -33.505688290217577 ], [ -70.751679053464201, -33.504017969959492 ], [ -70.752498518422627, -33.503948078636732 ], [ -70.751445503027611, -33.49630755990669 ], [ -70.751334535834431, -33.496309128803894 ], [ -70.751281254392893, -33.496152065318618 ], [ -70.75114362682524, -33.495064492405795 ], [ -70.751160920647024, -33.494435839435177 ], [ -70.751851553927523, -33.492723816166574 ], [ -70.751488912564653, -33.492520147373519 ], [ -70.750881575151993, -33.492057494175036 ], [ -70.749118719494192, -33.490566006948164 ], [ -70.746198971802357, -33.495822511249393 ], [ -70.745659301180453, -33.496619194095508 ], [ -70.743808589646122, -33.498879944366273 ], [ -70.741373753490635, -33.501493430534389 ], [ -70.7407974860634, -33.501982287116725 ], [ -70.740097512682155, -33.502391047803862 ], [ -70.739589148081706, -33.502612995713569 ], [ -70.736817840904934, -33.50343033282001 ] ] ] } },
{ "type": "Feature", "properties": { "id_barrio": 9, "barrio": "CLOTARIO BLEST", "poblacion_2017": 38553, "hombres_2017": 18511, "mujeres_2017": 20042, "consolidacion": "Consolidado", "fuente": "Base Comunal Barrios (campos asociados a Censo 2017)", "anio_fuente": 2017 }, "geometry": { "type": "Polygon", "coordinates": [ [ [ -70.749118719494192, -33.490566006948164 ], [ -70.744028749554573, -33.486404738175729 ], [ -70.743198006398941, -33.485802028812643 ], [ -70.741978455789265, -33.485157059268573 ], [ -70.740723958973945, -33.484721346596075 ], [ -70.739341571629438, -33.48447531531491 ], [ -70.737652235647474, -33.484364806065898 ], [ -70.731315855242713, -33.484096454314738 ], [ -70.731317357258277, -33.487231835929279 ], [ -70.731442273908655, -33.493583530449506 ], [ -70.731262119762803, -33.494554576572746 ], [ -70.732124624043408, -33.495230346008178 ], [ -70.732721747336527, -33.495789563248529 ], [ -70.733322377834796, -33.496459322779572 ], [ -70.733996731137395, -33.497416530346158 ], [ -70.734465455709213, -33.498285717844347 ], [ -70.736817840904934, -33.50343033282001 ], [ -70.739589148081706, -33.502612995713569 ], [ -70.740097512682155, -33.502391047803862 ], [ -70.7407974860634, -33.501982287116725 ], [ -70.741373753490635, -33.501493430534389 ], [ -70.743808589646122, -33.498879944366273 ], [ -70.745659301180453, -33.496619194095508 ], [ -70.746359834127048, -33.495558722249676 ], [ -70.747768126951215, -33.49294618368274 ], [ -70.749118719494192, -33.490566006948164 ] ] ] } },
{ "type": "Feature", "properties": { "id_barrio": 3, "barrio": "LA FARFANA", "poblacion_2017": 52937, "hombres_2017": 25414, "mujeres_2017": 27434, "consolidacion": "En consolidación", "fuente": "Base Comunal Barrios (campos asociados a Censo 2017)", "anio_fuente": 2017 }, "geometry": { "type": "Polygon", "coordinates": [ [ [ -70.76444531768972, -33.460349537550798 ], [ -70.761673063885397, -33.468692007379467 ], [ -70.761287809754506, -33.469588300026864 ], [ -70.7593041777575, -33.472980117384282 ], [ -70.756214662614468, -33.478061888979994 ], [ -70.750832996126192, -33.487593378096165 ], [ -70.752075589424038, -33.488732075033539 ], [ -70.752617756775479, -33.489355363650361 ], [ -70.753558641338799, -33.4901323222808 ], [ -70.754552832465791, -33.491076353273449 ], [ -70.755410129165341, -33.492212486202476 ], [ -70.755849776706071, -33.492575279147225 ], [ -70.756722771046142, -33.493150220028646 ], [ -70.757043815748034, -33.493536512063372 ], [ -70.757424310113706, -33.494428204454074 ], [ -70.757948699686011, -33.494132211808214 ], [ -70.759177572732142, -33.494205435510445 ], [ -70.763144446711649, -33.493077719351639 ], [ -70.763488392379855, -33.493046577686755 ], [ -70.764417220922084, -33.493209916699698 ], [ -70.764576503363202, -33.49320049037442 ], [ -70.764828040234349, -33.49310623862943 ], [ -70.76502282803196, -33.492863224600434 ], [ -70.766101216437306, -33.493063865488253 ], [ -70.771197273978117, -33.494308612164836 ], [ -70.787548893352906, -33.49784474064257 ], [ -70.788440807402353, -33.497235365836588 ], [ -70.789477694966763, -33.49694224762009 ], [ -70.78991039539865, -33.496681267622748 ], [ -70.790546551390236, -33.49640680257319 ], [ -70.790761035912936, -33.496089524885448 ], [ -70.790784255582778, -33.49588678374743 ], [ -70.791161871651568, -33.494642532133163 ], [ -70.791603246034427, -33.494106972253036 ], [ -70.791738594556733, -33.494023428614639 ], [ -70.792159126764943, -33.494000660432711 ], [ -70.792629080943129, -33.493436133709359 ], [ -70.793261773857367, -33.492983859254487 ], [ -70.79424384649144, -33.492633798097742 ], [ -70.796712883609885, -33.492232109683066 ], [ -70.797258889368507, -33.49207743637524 ], [ -70.797751977868046, -33.491886335150518 ], [ -70.79881193530764, -33.49136230132342 ], [ -70.799295162347335, -33.491220906019173 ], [ -70.800010516179853, -33.491155922230512 ], [ -70.800531825492328, -33.490917382484454 ], [ -70.801298313432369, -33.49046399255375 ], [ -70.801876871628949, -33.490241057188406 ], [ -70.802279891397561, -33.490201813955657 ], [ -70.802853871370033, -33.490349712827836 ], [ -70.802988176052992, -33.490335674247035 ], [ -70.803278690264634, -33.489972978623392 ], [ -70.803884778658045, -33.489529161725336 ], [ -70.804922265346875, -33.488563508462221 ], [ -70.805780009824716, -33.487507830409911 ], [ -70.805869645614777, -33.48701877516573 ], [ -70.805894755924058, -33.486320397129951 ], [ -70.806020235045096, -33.486113153654614 ], [ -70.806186158892089, -33.485538798466024 ], [ -70.806535019859069, -33.485441072889358 ], [ -70.80686532146305, -33.484912654027433 ], [ -70.806960878989912, -33.484653485345568 ], [ -70.807005251521417, -33.484475620092994 ], [ -70.806976791418322, -33.484262565113987 ], [ -70.806817758169885, -33.484011138626023 ], [ -70.806686260785682, -33.483928473688636 ], [ -70.806684922850522, -33.483864050331732 ], [ -70.806952081647282, -33.483304327405989 ], [ -70.80727924025966, -33.482856506675148 ], [ -70.807527935465288, -33.482796491546587 ], [ -70.80771324425092, -33.482693093997135 ], [ -70.808177112565716, -33.482347996692212 ], [ -70.809221820903318, -33.481273457476469 ], [ -70.809295184673843, -33.481103219280001 ], [ -70.809388514359838, -33.479812986505159 ], [ -70.809363348986906, -33.47952738623227 ], [ -70.808763198384185, -33.477934145978367 ], [ -70.808726899239446, -33.477557688392601 ], [ -70.808864607245596, -33.474632214930338 ], [ -70.808840666074175, -33.473442572851376 ], [ -70.808435002462261, -33.47282813507497 ], [ -70.807561896189654, -33.471719297393399 ], [ -70.807363833855973, -33.471373992644509 ], [ -70.806738240532027, -33.469302640490788 ], [ -70.806249772016898, -33.468011807243258 ], [ -70.805976664568149, -33.466754759008921 ], [ -70.805897560899979, -33.466618598424432 ], [ -70.8051097472066, -33.466243544127494 ], [ -70.80453783511642, -33.466135791649343 ], [ -70.803842706308359, -33.464997412443012 ], [ -70.803931699520817, -33.464895905249925 ], [ -70.803834923475691, -33.462434355020271 ], [ -70.800392274431417, -33.462639814128664 ], [ -70.799928723184479, -33.462795571578603 ], [ -70.799543677977226, -33.462853854985191 ], [ -70.796055649971962, -33.462760632624864 ], [ -70.796598703227062, -33.460579434054935 ], [ -70.795680780742956, -33.460453358834151 ], [ -70.793207107590817, -33.46060996419147 ], [ -70.782265359240697, -33.462377749756321 ], [ -70.782133701896427, -33.462444576084941 ], [ -70.781185891482522, -33.462349832422511 ], [ -70.777013894067778, -33.463048650022451 ], [ -70.777010435262838, -33.462888727644653 ], [ -70.776813384107825, -33.46235483887768 ], [ -70.776019370028379, -33.459672146408536 ], [ -70.775625034646453, -33.458131374401084 ], [ -70.770696429540536, -33.458510428942446 ], [ -70.764838671450931, -33.458884956621198 ], [ -70.76444531768972, -33.460349537550798 ] ] ] } },
{ "type": "Feature", "properties": { "id_barrio": 10, "barrio": "ESQUINA BLANCA - CUATRO ALAMOS", "poblacion_2017": 14172, "hombres_2017": 6919, "mujeres_2017": 7253, "consolidacion": "Consolidado", "fuente": "Base Comunal Barrios (campos asociados a Censo 2017)", "anio_fuente": 2017 }, "geometry": { "type": "Polygon", "coordinates": [ [ [ -70.722952613587282, -33.509955495492058 ], [ -70.727331342510482, -33.511840980721431 ], [ -70.737043000900229, -33.51088264030605 ], [ -70.737189185984334, -33.512188319524888 ], [ -70.734026951510117, -33.515001001547787 ], [ -70.740262038323294, -33.518260081580031 ], [ -70.741158636281511, -33.516894128122658 ], [ -70.741427817098412, -33.51668836273749 ], [ -70.742046874528256, -33.516470453026372 ], [ -70.74399824125625, -33.517577032460096 ], [ -70.744732993979582, -33.516442666915253 ], [ -70.747083900627402, -33.518663692903402 ], [ -70.747166261570953, -33.5186849919805 ], [ -70.755623164467451, -33.518738797221154 ], [ -70.755680119362395, -33.51056567626496 ], [ -70.747480728221575, -33.510371369333377 ], [ -70.739863746503303, -33.510099140124126 ], [ -70.739895626332483, -33.51019101946202 ], [ -70.72313125342022, -33.509809641539057 ], [ -70.722952613587282, -33.509955495492058 ] ] ] } }
]
}
